$$SOE
2459580.500000000, A.D. 2022-Jan-01 00:00:00.0000, -6.275005491828754E+05, -4.465524228182288E+08, 9.937088361934692E+06,
2459587.500000000, A.D. 2022-Jan-08 00:00:00.0000, 1.011659196498077E+07, -4.474724219387770E+08, 9.618170170366883E+06,
2459594.500000000, A.D. 2022-Jan-15 00:00:00.0000, 2.085523400207377E+07, -4.481503118880342E+08, 9.294046713937342E+06,
2459601.500000000, A.D. 2022-Jan-22 00:00:00.0000, 3.158269955383795E+07, -4.485874096265874E+08, 8.964927833577424E+06,
2459608.500000000, A.D. 2022-Jan-29 00:00:00.0000, 4.229335033393256E+07, -4.487851701229789E+08, 8.631023846199900E+06,
2459615.500000000, A.D. 2022-Feb-05 00:00:00.0000, 5.298163678949679E+07, -4.487451820488412E+08, 8.292545480352163E+06,
2459622.500000000, A.D. 2022-Feb-12 00:00:00.0000, 6.364210101452775E+07, -4.484691645150021E+08, 7.949703534680277E+06,
2459629.500000000, A.D. 2022-Feb-19 00:00:00.0000, 7.426938024623252E+07, -4.479589624949356E+08, 7.602708574435622E+06,
2459636.500000000, A.D. 2022-Feb-26 00:00:00.0000, 8.485820963915512E+07, -4.472165416725485E+08, 7.251770727217793E+06,
2459643.500000000, A.D. 2022-Mar-05 00:00:00.0000, 9.540342448310311E+07, -4.462439833439252E+08, 6.897099512773961E+06,
2459650.500000000, A.D. 2022-Mar-12 00:00:00.0000, 1.058999620939727E+08, -4.450434794504506E+08, 6.538903680879802E+06,
2459657.500000000, A.D. 2022-Mar-19 00:00:00.0000, 1.163428634563136E+08, -4.436173277259077E+08, 6.177391052727133E+06,
2459664.500000000, A.D. 2022-Mar-26 00:00:00.0000, 1.267272746485128E+08, -4.419679269731838E+08, 5.812768362875760E+06,
2459671.500000000, A.D. 2022-Apr-02 00:00:00.0000, 1.370484481275946E+08, -4.400977725357481E+08, 5.445241090624243E+06,
2459678.500000000, A.D. 2022-Apr-09 00:00:00.0000, 1.473017441551455E+08, -4.380094519684253E+08, 5.075013256009638E+06,
2459685.500000000, A.D. 2022-Apr-16 00:00:00.0000, 1.574826327304852E+08, -4.357056402625452E+08, 4.702287201002687E+06,
2459692.500000000, A.D. 2022-Apr-23 00:00:00.0000, 1.675866947703158E+08, -4.331890935491280E+08, 4.327263560760945E+06,
2459699.500000000, A.D. 2022-Apr-30 00:00:00.0000, 1.776096206721601E+08, -4.304626435307286E+08, 3.950141412712157E+06,
2459706.500000000, A.D. 2022-May-07 00:00:00.0000, 1.875472093325365E+08, -4.275291946187183E+08, 3.571118160832465E+06,
2459713.500000000, A.D. 2022-May-14 00:00:00.0000, 1.973953690187900E+08, -4.243917207411212E+08, 3.190389275609583E+06,
2459720.500000000, A.D. 2022-May-21 00:00:00.0000, 2.071501180736371E+08, -4.210532610658872E+08, 2.808148137741476E+06,
2459727.500000000, A.D. 2022-May-28 00:00:00.0000, 2.168075849841225E+08, -4.175169156020767E+08, 2.424585950924814E+06,
2459734.500000000, A.D. 2022-Jun-04 00:00:00.0000, 2.263640081025091E+08, -4.137858409959657E+08, 2.039891672615141E+06,
2459741.500000000, A.D. 2022-Jun-11 00:00:00.0000, 2.358157351732971E+08, -4.098632465241536E+08, 1.654251949596435E+06,
2459748.500000000, A.D. 2022-Jun-18 00:00:00.0000, 2.451592227134314E+08, -4.057523902737586E+08, 1.267851055811197E+06,
2459755.500000000, A.D. 2022-Jun-25 00:00:00.0000, 2.543910352827855E+08, -4.014565755447063E+08, 8.808708268846273E+05,
2459762.500000000, A.D. 2022-Jul-02 00:00:00.0000, 2.635078447866774E+08, -3.969791475404600E+08, 4.934905734981000E+05,
2459769.500000000, A.D. 2022-Jul-09 00:00:00.0000, 2.725064302087517E+08, -3.923234901705679E+08, 1.058869521728754E+05,
2459776.500000000, A.D. 2022-Jul-16 00:00:00.0000, 2.813836777268915E+08, -3.874930218829483E+08, -2.817661129845083E+05,
2459783.500000000, A.D. 2022-Jul-23 00:00:00.0000, 2.901365790204766E+08, -3.824911904485142E+08, -6.692972495827675E+05,
2459790.500000000, A.D. 2022-Jul-30 00:00:00.0000, 2.987622278588234E+08, -3.773214700505058E+08, -1.056537479210466E+06,
2459797.500000000, A.D. 2022-Aug-06 00:00:00.0000, 3.072578185760157E+08, -3.719873600278235E+08, -1.443320359923750E+06,
2459804.500000000, A.D. 2022-Aug-13 00:00:00.0000, 3.156206456162271E+08, -3.664923825162128E+08, -1.829482128318518E+06,
2459811.500000000, A.D. 2022-Aug-20 00:00:00.0000, 3.238481025871829E+08, -3.608400794894480E+08, -2.214861738301471E+06,
2459818.500000000, A.D. 2022-Aug-27 00:00:00.0000, 3.319376808964917E+08, -3.550340099256333E+08, -2.599300862146676E+06,
2459825.500000000, A.D. 2022-Sep-03 00:00:00.0000, 3.398869682250832E+08, -3.490777472076633E+08, -2.982643885637522E+06,
2459832.500000000, A.D. 2022-Sep-10 00:00:00.0000, 3.476936469337491E+08, -3.429748767324983E+08, -3.364737903685436E+06,
2459839.500000000, A.D. 2022-Sep-17 00:00:00.0000, 3.553554924374599E+08, -3.367289937294365E+08, -3.745432719444782E+06,
2459846.500000000, A.D. 2022-Sep-24 00:00:00.0000, 3.628703716124850E+08, -3.303437013362402E+08, -4.124580856910869E+06,
2459853.500000000, A.D. 2022-Oct-01 00:00:00.0000, 3.702362414806779E+08, -3.238226089527617E+08, -4.502037611208007E+06,
2459860.500000000, A.D. 2022-Oct-08 00:00:00.0000, 3.774511485830681E+08, -3.171693303473245E+08, -4.877661131621048E+06,
2459867.500000000, A.D. 2022-Oct-15 00:00:00.0000, 3.845132281159244E+08, -3.103874803149115E+08, -5.251312354220971E+06,
2459874.500000000, A.D. 2022-Oct-22 00:00:00.0000, 3.914207006514308E+08, -3.034806715694903E+08, -5.622854721997574E+06,
2459881.500000000, A.D. 2022-Oct-29 00:00:00.0000, 3.981718689431779E+08, -2.964525144608595E+08, -5.992154134106055E+06,
2459888.500000000, A.D. 2022-Nov-05 00:00:00.0000, 4.047651169188468E+08, -2.893066167710972E+08, -6.359079093279049E+06,
2459895.500000000, A.D. 2022-Nov-12 00:00:00.0000, 4.111989088990039E+08, -2.820465823204615E+08, -6.723500767990500E+06,
2459902.500000000, A.D. 2022-Nov-19 00:00:00.0000, 4.174717883260176E+08, -2.746760093342987E+08, -7.085292981674820E+06,
2459909.500000000, A.D. 2022-Nov-26 00:00:00.0000, 4.235823762682905E+08, -2.671984889656183E+08, -7.444332185806006E+06,
2459916.500000000, A.D. 2022-Dec-03 00:00:00.0000, 4.295293698686296E+08, -2.596176039821646E+08, -7.800497433236912E+06,
2459923.500000000, A.D. 2022-Dec-10 00:00:00.0000, 4.353115407849113E+08, -2.519369275967286E+08, -8.153670354622871E+06,
2459930.500000000, A.D. 2022-Dec-17 00:00:00.0000, 4.409277336500325E+08, -2.441600224633046E+08, -8.503735142379880E+06,
2459937.500000000, A.D. 2022-Dec-24 00:00:00.0000, 4.463768646621428E+08, -2.362904399025098E+08, -8.850578557723567E+06,
2459944.500000000, A.D. 2022-Dec-31 00:00:00.0000, 4.516579206638473E+08, -2.283317192459165E+08, -9.194089984918132E+06,
2459951.500000000, A.D. 2023-Jan-07 00:00:00.0000, 4.567699588344104E+08, -2.202873863338300E+08, -9.534161465374157E+06,
2459958.500000000, A.D. 2023-Jan-14 00:00:00.0000, 4.617121050296616E+08, -2.121609506673245E+08, -9.870687490540490E+06,
2459965.500000000, A.D. 2023-Jan-21 00:00:00.0000, 4.664835501253785E+08, -2.039559043849286E+08, -1.020356475378884E+07,
2459972.500000000, A.D. 2023-Jan-28 00:00:00.0000, 4.710835480318448E+08, -1.956757232556748E+08, -1.053269221383710E+07,
2459979.500000000, A.D. 2023-Feb-04 00:00:00.0000, 4.755114151723720E+08, -1.873238666567231E+08, -1.085797120317417E+07,
2459986.500000000, A.D. 2023-Feb-11 00:00:00.0000, 4.797665296331263E+08, -1.789037767263814E+08, -1.117930543257085E+07,
2459993.500000000, A.D. 2023-Feb-18 00:00:00.0000, 4.838483299232919E+08, -1.704188775138005E+08, -1.149660095306803E+07,
2460000.500000000, A.D. 2023-Feb-25 00:00:00.0000, 4.877563136099402E+08, -1.618725742854427E+08, -1.180976611268040E+07,
2460007.500000000, A.D. 2023-Mar-04 00:00:00.0000, 4.914900359307645E+08, -1.532682529676876E+08, -1.211871151555810E+07,
2460014.500000000, A.D. 2023-Mar-11 00:00:00.0000, 4.950491084139063E+08, -1.446092797230453E+08, -1.242334998607254E+07,
2460021.500000000, A.D. 2023-Mar-18 00:00:00.0000, 4.984331975522674E+08, -1.358990007073303E+08, -1.272359654606389E+07,
2460028.500000000, A.D. 2023-Mar-25 00:00:00.0000, 5.016420237355183E+08, -1.271407420527696E+08, -1.301936842763746E+07,
2460035.500000000, A.D. 2023-Apr-01 00:00:00.0000, 5.046753608638906E+08, -1.183378096809167E+08, -1.331058512816361E+07,
2460042.500000000, A.D. 2023-Apr-08 00:00:00.0000, 5.075330360288147E+08, -1.094934877173359E+08, -1.359716835072333E+07,
2460049.500000000, A.D. 2023-Apr-15 00:00:00.0000, 5.102149269250348E+08, -1.006110366122811E+08, -1.387904170584605E+07,
2460056.500000000, A.D. 2023-Apr-22 00:00:00.0000, 5.127209588036951E+08, -9.169369401829785E+07, -1.415613058988073E+07,
2460063.500000000, A.D. 2023-Apr-29 00:00:00.0000, 5.150511037003632E+08, -8.274467616989557E+07, -1.442836230682012E+07,
2460070.500000000, A.D. 2023-May-06 00:00:00.0000, 5.172053801775096E+08, -7.376717798174876E+07, -1.469566612661403E+07,
2460077.500000000, A.D. 2023-May-13 00:00:00.0000, 5.191838526049833E+08, -6.476437275705126E+07, -1.495797326351224E+07,
2460084.500000000, A.D. 2023-May-20 00:00:00.0000, 5.209866302127861E+08, -5.573941199544883E+07, -1.521521683624871E+07,
2460091.500000000, A.D. 2023-May-27 00:00:00.0000, 5.226138661096227E+08, -4.669542532836743E+07, -1.546733183048066E+07,
2460098.500000000, A.D. 2023-Jun-03 00:00:00.0000, 5.240657563247602E+08, -3.763552055417437E+07, -1.571425506693484E+07,
2460105.500000000, A.D. 2023-Jun-10 00:00:00.0000, 5.253425388969547E+08, -2.856278378545143E+07, -1.595592517887688E+07,
2460112.500000000, A.D. 2023-Jun-17 00:00:00.0000, 5.264444930993921E+08, -1.948027976719742E+07, -1.619228261229566E+07,
2460119.500000000, A.D. 2023-Jun-24 00:00:00.0000, 5.273719391201024E+08, -1.039105230922049E+07, -1.642326967391925E+07,
2460126.500000000, A.D. 2023-Jul-01 00:00:00.0000, 5.281252384499020E+08, -1.298124003077314E+06, -1.664883058284752E+07,
2460133.500000000, A.D. 2023-Jul-08 00:00:00.0000, 5.287047933037174E+08, 7.795505600701105E+06, -1.686891130518615E+07,
2460140.500000000, A.D. 2023-Jul-15 00:00:00.0000, 5.291110437998214E+08, 1.688686052658098E+07, -1.708345928594188E+07,
2460147.500000000, A.D. 2023-Jul-22 00:00:00.0000, 5.293444664182308E+08, 2.597298658512133E+07, -1.729242348590280E+07,
$$EOE